CALSPHERE 1             
1 00900U 64063C   24012.88092830  .00000909  00000+0  94439-3 0  9994
2 00900  90.1952  52.1001 0028230  93.4406 321.0099 13.74715485949558
CALSPHERE 2             
1 00902U 64063E   24012.68002390  .00000080  00000+0  10725-3 0  9992
2 00902  90.2098  55.5950 0016508 282.2814 204.0926 13.52777646736408
LCS 1                   
1 01361U 65034C   24012.68545386 -.00000006  00000+0 -18305-2 0  9999
2 01361  32.1400 121.8759 0004746 163.7325 196.3325  9.89304478122099
TEMPSAT 1               
1 01512U 65065E   24012.56287177  .00000054  00000+0  90482-4 0  9998
2 01512  89.9423 214.8013 0068692 217.2426 197.3010 13.33500819841883
CALSPHERE 4A            
1 01520U 65065H   24012.81837917  .00000140  00000+0  25165-3 0  9999
2 01520  89.9593 128.7947 0070599  84.7863  14.3179 13.36023086844347
OPS 5712 (P/L 160)      
1 02826U 67053A   24012.99038998  .00008866  00000+0  19972-2 0  9990
2 02826  69.9266  15.7872 0009696 270.8439  89.1587 14.56611458936198
OPS 5712 (P/L 153)      
1 02874U 67053H   24012.95277232  .00000068  00000+0  87566-4 0  9997
2 02874  69.9720 214.4862 0010382 267.7916  92.2001 13.96540240883035
SURCAL 150B             
1 02909U 67053J   24012.91454240  .00019038  00000+0  28232-2 0  9998
2 02909  69.9446 333.0453 0007607 285.3631  74.6675 14.75074562947948
RIGIDSPHERE 2 (LCS 4)   
1 05398U 71067E   24012.90446162  .00001210  00000+0  40789-3 0  9991
2 05398  87.6230 224.2819 0060064 289.6424  69.8298 14.35326534746625
COSMOS 2493 (SKRL-756 1)
1 39490U 13078A   24013.17777052  .00003856  00000+0  36955-3 0  9992
2 39490  82.4151  42.1137 0015238 351.5337   8.5623 14.92828225545654
COSMOS 2494 (SKRL-756 2)
1 39491U 13078B   24013.15458713  .00004423  00000+0  40561-3 0  9990
2 39491  82.4152  34.5568 0018538 320.2056  39.7804 14.94558584546058
